NORAD_CAT_ID,OBJECT_NAME,OBJECT_TYPE,EPOCH,MEAN_MOTION,ECCENTRICITY,INCLINATION,RA_OF_ASC_NODE,ARG_OF_PERICENTER,MEAN_ANOMALY,BSTAR,MEAN_MOTION_DOT,MEAN_MOTION_DDOT,TLE_LINE0,TLE_LINE1,TLE_LINE2,SEMIMAJOR_AXIS,PERIOD,APOGEE,PERIGEE,DECAYED
51875.0,STARLINK-3585,PAYLOAD,2022-04-17 14:00:01,15.60990928,0.0001314,53.2178,281.9606,68.0349,170.9923,-0.0091115,-0.00714142,0.0,0 STARLINK-3585,1 51875U 22022Z   22107.58334491 -.00714142  00000-0 -91115-2 0  9993,2 51875  53.2178 281.9606 0001314  68.0349 170.9923 15.60990928  3705,6762.93,92.249,385.684,383.907,0.0
51875.0,STARLINK-3585,PAYLOAD,2022-04-17 22:00:00,15.60479518,0.000113,53.2176,280.3453,80.7395,232.2328,-0.0092608,-0.00711785,0.0,0 STARLINK-3585,1 51875U 22022Z   22107.91667824 -.00711785  00000-0 -92608-2 0  9997,2 51875  53.2176 280.3453 0001130  80.7395 232.2328 15.60479518  3690,6764.408,92.279,387.037,385.509,0.0
51875.0,STARLINK-3585,PAYLOAD,2022-04-18 06:00:00,15.59970846,0.0001148,53.2175,278.7276,55.7023,330.6037,-0.0094777,-0.00714102,0.0,0 STARLINK-3585,1 51875U 22022Z   22108.25001157 -.00714102  00000-0 -94777-2 0  9991,2 51875  53.2175 278.7276 0001148  55.7023 330.6037 15.59970846  8392,6765.878000000002,92.309,388.52,386.967,0.0
51875.0,STARLINK-3585,PAYLOAD,2022-04-18 14:00:01,15.59462176,0.0001394,53.2176,277.1136,46.976000000000006,52.0494,-0.0096945,-0.00716169,0.0,0 STARLINK-3585,1 51875U 22022Z   22108.58334491 -.00716169  00000-0 -96945-2 0  9991,2 51875  53.2176 277.1136 0001394  46.9760  52.0494 15.59462176  3708,6767.35,92.34,390.158,388.271,0.0
51875.0,STARLINK-3585,PAYLOAD,2022-04-18 22:00:00,15.58946407,0.0001279,53.2173,275.5017,66.1874,104.9464,-0.0097388,-0.00706247,0.0,0 STARLINK-3585,1 51875U 22022Z   22108.91667824 -.00706247  00000-0 -97388-2 0  9995,2 51875  53.2173 275.5017 0001279  66.1874 104.9464 15.58946407  3704,6768.842,92.37,391.573,389.841,0.0
51875.0,STARLINK-3585,PAYLOAD,2022-04-19 06:00:00,15.58440291,0.000128,53.2175,273.8876,64.4908,178.1374,-0.010023,-0.00712424,0.0,0 STARLINK-3585,1 51875U 22022Z   22109.25001157 -.00712424  00000-0 -10023-1 0  9998,2 51875  53.2175 273.8876 0001280  64.4908 178.1374 15.58440291  8552,6770.308000000001,92.4,393.039,391.306,0.0
51875.0,STARLINK-3585,PAYLOAD,2022-04-19 14:00:01,15.579321900000002,0.0001228,53.2176,272.2774,61.8246,251.6842,-0.010267,-0.00715542,0.0,0 STARLINK-3585,1 51875U 22022Z   22109.58334491 -.00715542  00000-0 -10267-1 0  9998,2 51875  53.2176 272.2774 0001228  61.8246 251.6842 15.57932190  3703,6771.779,92.43,394.476,392.81300000000016,0.0
51875.0,STARLINK-3585,PAYLOAD,2022-04-20 06:00:00,15.569097400000002,0.0001335,53.2176,269.0589,48.2371,45.198,-0.0106,-0.00711219,0.0,0 STARLINK-3585,1 51875U 22022Z   22110.25001157 -.00711219  00000-0 -10600-1 0  9992,2 51875  53.2176 269.0589 0001335  48.2371  45.1980 15.56909740  8706,6774.744000000002,92.491,397.513,395.704,0.0
51875.0,STARLINK-3585,PAYLOAD,2022-04-20 14:00:01,15.56400621,0.0001526,53.2177,267.4525,47.9335,114.5443,-0.010827,-0.00712629,0.0,0 STARLINK-3585,1 51875U 22022Z   22110.58334491 -.00712629  00000-0 -10827-1 0  9995,2 51875  53.2177 267.4525 0001526  47.9335 114.5443 15.56400621  3699,6776.221,92.521,399.12,397.052,0.0
51875.0,STARLINK-3585,PAYLOAD,2022-04-20 22:00:00,15.55888778,0.0001328,53.2173,265.8476,63.5891,167.3191,-0.010972,-0.00708808,0.0,0 STARLINK-3585,1 51875U 22022Z   22110.91667824 -.00708808  00000-0 -10972-1 0  9996,2 51875  53.2173 265.8476 0001328  63.5891 167.3191 15.55888778  3691,6777.706999999999,92.552,400.472,398.672,0.0
51875.0,STARLINK-3585,PAYLOAD,2022-04-21 06:00:00,15.55379803,0.0001304,53.2175,264.2411,53.1896,245.5373,-0.011216,-0.00710801,0.0,0 STARLINK-3585,1 51875U 22022Z   22111.25001157 -.00710801  00000-0 -11216-1 0  9993,2 51875  53.2175 264.2411 0001304  53.1896 245.5373 15.55379803  8868,6779.186,92.582,401.935,400.167,0.0
51875.0,STARLINK-3585,PAYLOAD,2022-04-21 14:00:01,15.54872721,0.0001489,53.2177,262.6387,39.2806,326.6496,-0.011513,-0.00715641,0.0,0 STARLINK-3585,1 51875U 22022Z   22111.58334491 -.00715641  00000-0 -11513-1 0  9996,2 51875  53.2177 262.6387 0001489  39.2806 326.6496 15.54872721  3705,6780.66,92.612,403.534,401.515,0.0
51875.0,STARLINK-3585,PAYLOAD,2022-04-21 22:00:00,15.54360783,0.0001313,53.2171,261.0374,48.5361,23.9862,-0.011662,-0.00711666,0.0,0 STARLINK-3585,1 51875U 22022Z   22111.91667824 -.00711666  00000-0 -11662-1 0  9990,2 51875  53.2171 261.0374 0001313  48.5361  23.9862 15.54360783  3718,6782.148,92.643,404.904,403.12300000000016,0.0
51875.0,STARLINK-3585,PAYLOAD,2022-04-22 06:00:00,15.53849864,0.0001333,53.2173,259.4345,54.342,84.1615,-0.011863,-0.00710568,0.0,0 STARLINK-3585,1 51875U 22022Z   22112.25001157 -.00710568  00000-0 -11863-1 0  9992,2 51875  53.2173 259.4345 0001333  54.3420  84.1615 15.53849864  9028,6783.635,92.673,406.404,404.596,0.0
51875.0,STARLINK-3585,PAYLOAD,2022-04-22 14:00:01,15.53339577,0.0001686,53.2174,257.8358,43.9213,159.9483,-0.012075,-0.00710001,0.0,0 STARLINK-3585,1 51875U 22022Z   22112.58334491 -.00710001  00000-0 -12075-1 0  9996,2 51875  53.2174 257.8358 0001686  43.9213 159.9483 15.53339577  3719,6785.121,92.703,408.13,405.842,0.0
51875.0,STARLINK-3585,PAYLOAD,2022-04-23 06:00:02,15.52319398,0.0001204,53.2175,254.6387,58.574,274.256,-0.012526,-0.00709615,0.0,0 STARLINK-3585,1 51875U 22022Z   22113.25002315 -.00709615  00000-0 -12526-1 0  9998,2 51875  53.2175 254.6387 0001204  58.5740 274.2560 15.52319398  9171,6788.093000000003,92.764,410.775,409.141,0.0
51875.0,STARLINK-3585,PAYLOAD,2022-04-23 14:00:01,15.518124300000002,0.0001740999999999,53.2176,253.0442,31.5092,4.7824,-0.012851,-0.00714451,0.0,0 STARLINK-3585,1 51875U 22022Z   22113.58334491 -.00714451  00000-0 -12851-1 0  9992,2 51875  53.2176 253.0442 0001741  31.5092   4.7824 15.51812430  3698,6789.571,92.795,412.61800000000005,410.254,0.0
51875.0,STARLINK-3585,PAYLOAD,2022-04-24 06:00:00,15.50791527,0.0001845,53.2173,249.854,34.8812,126.63,-0.0133,-0.00722034,0.0,0 STARLINK-3585,1 51875U 22022Z   22114.25001157 -.00722034  00000-0 -13300-1 0  9993,2 51875  53.2173 249.8540 0001845  34.8812 126.6300 15.50791527  9330,6792.551,92.856,415.669,413.163,0.0
51875.0,STARLINK-3585,PAYLOAD,2022-04-24 14:00:01,15.50163115,0.0002024,53.2175,248.262,33.2507,189.9718,-0.0070211,-0.00383845,0.0,0 STARLINK-3585,1 51875U 22022Z   22114.58334491 -.00383845  00000-0 -70211-2 0  9997,2 51875  53.2175 248.2620 0002024  33.2507 189.9718 15.50163115  3692,6794.386,92.893,417.627,414.876,0.0
51875.0,STARLINK-3585,PAYLOAD,2022-04-24 20:00:01,15.49882254,0.0001559,53.2173,247.068,46.0704,132.9994,0.00011213,5.917e-05,0.0,0 STARLINK-3585,1 51875U 22022Z   22114.83334491  .00005917  00000-0  11213-3 0  9992,2 51875  53.2173 247.0680 0001559  46.0704 132.9994 15.49882254  9427,6795.206999999999,92.91,418.132,416.013,0.0
51875.0,STARLINK-3585,PAYLOAD,2022-04-25 06:00:00,15.498122400000002,0.0001863,53.2157,245.0682,49.0386,296.1467,0.0012723,0.00072242,0.0,0 STARLINK-3585,1 51875U 22022Z   22115.25001157  .00072242  00000-0  12723-2 0  9990,2 51875  53.2157 245.0682 0001863  49.0386 296.1467 15.49812240  9488,6795.4119999999975,92.914,418.543,416.011,0.0
51875.0,STARLINK-3585,PAYLOAD,2022-04-25 14:00:01,15.49860953,0.0002041,53.2152,243.4743,45.3084,0.7216,-0.00020609,-0.00012121,0.0,0 STARLINK-3585,1 51875U 22022Z   22115.58334491 -.00012121  00000-0 -20609-3 0  9991,2 51875  53.2152 243.4743 0002041  45.3084   0.7216 15.49860953  9537,6795.269,92.912,418.521,415.74800000000016,0.0
51875.0,STARLINK-3585,PAYLOAD,2022-04-25 22:00:00,15.49872042,0.0002115,53.2151,241.8814,41.9336,64.9725,0.00018995,0.00010338,0.0,0 STARLINK-3585,1 51875U 22022Z   22115.91667824  .00010338  00000-0  18995-3 0  9998,2 51875  53.2151 241.8814 0002115  41.9336  64.9725 15.49872042  3703,6795.236999999999,92.911,418.539,415.665,0.0
51875.0,STARLINK-3585,PAYLOAD,2022-04-26 06:00:00,15.49864611,0.0001964,53.2154,240.2865,46.9922,120.8254,0.0010933,0.00062049,0.0,0 STARLINK-3585,1 51875U 22022Z   22116.25001157  .00062049  00000-0  10933-2 0  9996,2 51875  53.2154 240.2865 0001964  46.9922 120.8254 15.49864611  9643,6795.259,92.911,418.458,415.789,0.0
51875.0,STARLINK-3585,PAYLOAD,2022-04-26 14:00:01,15.49904265,0.0002186,53.2159,238.695,44.1928,184.5994,1.3893e-05,3.37e-06,0.0,0 STARLINK-3585,1 51875U 22022Z   22116.58335648  .00000337  00000-0  13893-4 0  9999,2 51875  53.2159 238.6950 0002186  44.1928 184.5994 15.49904265  3694,6795.143,92.909,418.49300000000005,415.522,0.0
51875.0,STARLINK-3585,PAYLOAD,2022-04-26 22:00:00,15.49926465,0.0002207,53.2159,237.1018,41.1982,248.4602,-6.770100000000001e-05,-4.299e-05,0.0,0 STARLINK-3585,1 51875U 22022Z   22116.91667824 -.00004299  00000-0 -67701-4 0  9990,2 51875  53.2159 237.1018 0002207  41.1982 248.4602 15.49926465  9748,6795.078,92.908,418.443,415.443,0.0
51875.0,STARLINK-3585,PAYLOAD,2022-04-27 14:00:01,15.49952554,0.0002315,53.216,233.9156,43.2199,8.436,-3.6052e-05,-2.503e-05,0.0,0 STARLINK-3585,1 51875U 22022Z   22117.58335648 -.00002503  00000-0 -36052-4 0  9991,2 51875  53.2160 233.9156 0002315  43.2199   8.4360 15.49952554  9844,6795.002,92.906,418.44,415.294,0.0
51875.0,STARLINK-3585,PAYLOAD,2022-04-28 14:00:01,15.49958723,0.0002137,53.2159,229.1363,37.2989,197.2542,-0.00078621,-0.00044938,0.0,0 STARLINK-3585,1 51875U 22022Z   22118.58334491 -.00044938  00000-0 -78621-3 0  9992,2 51875  53.2159 229.1363 0002137  37.2989 197.2542 15.49958723  3703,6794.984,92.906,418.301,415.397,0.0
51875.0,STARLINK-3585,PAYLOAD,2022-04-28 20:00:01,15.49941393,0.000209,53.2155,227.9416,31.5358,158.7584,-0.00099477,-0.0005662,0.0,0 STARLINK-3585,1 51875U 22022Z   22118.83334491 -.00056620  00000-0 -99477-3 0  9993,2 51875  53.2155 227.9416 0002090  31.5358 158.7584 15.49941393 10047,6795.034000000002,92.907,418.32,415.479,0.0
